#aV2015 10 18  0  0  0.00000000     288 DD+AD WGS84 FIT  NGA
## 1867      0.00000000   300.00000000 57313 0.0000000000000
+   31     1  2  3  4  5  6  7  8  9 11 12 13 14 15 16 17 18
+         19 20 21 22 23 24 25 26 27 28 29 30 31 32  0  0  0
+          0  0  0  0  0  0  0  0  0  0  0  0  0  0  0  0  0
+          0  0  0  0  0  0  0  0  0  0  0  0  0  0  0  0  0
+          0  0  0  0  0  0  0  0  0  0  0  0  0  0  0  0  0
++         2  2  2  2  2  2  2  2  2  2  2  2  2  2  2  2  2
++         2  2  2  2  2  2  2  2  2  2  2  2  2  2  0  0  0
++         0  0  0  0  0  0  0  0  0  0  0  0  0  0  0  0  0
++         0  0  0  0  0  0  0  0  0  0  0  0  0  0  0  0  0
++         0  0  0  0  0  0  0  0  0  0  0  0  0  0  0  0  0
%c cc cc ccc ccc cccc cccc cccc cccc ccccc ccccc ccccc ccccc
%c cc cc ccc ccc cccc cccc cccc cccc ccccc ccccc ccccc ccccc
%f  0.0000000  0.000000000  0.00000000000  0.000000000000000
%f  0.0000000  0.000000000  0.00000000000  0.000000000000000
%i    0    0    0    0      0      0      0      0         0
%i    0    0    0    0      0      0      0      0         0
/*      NGA, ST. LOUIS,MO.                                  
/*   EPHEMERIS COMPUTED FROM 2 DAYS OF DATA                 
/*   EPOCHA v2.4 SMOOTHER                                   
/*   G1762 IERS2010 SATAF SATAPC                            
*  2015 10 18 10 55  0.00000000
P  1  13800.799383 -22042.967469   4758.149402      2.611585                    
V  1     33.367552   6805.270859  31155.098393      0.007518                    
P  2 -16719.488745   2301.215157 -20020.091156    593.120439                    
V  2   8782.413511 -25011.119721 -10447.618553      0.012813                    
P  3  16683.124501 -12975.210937 -16092.625554     19.593654                    
V  3  20530.238077    -97.745134  21332.874445     -0.016143                    
P  4  16826.067652 -15694.615347  12688.502047    -33.923417                    
V  4  -3827.823072  16667.621267  25255.238305     -0.050880                    
P  5 -26570.046738   1868.781394  -1363.088417   -183.885459                    
V  5   1309.778524  -3250.349004 -31249.116070      0.039205                    
P  6 -11449.326056 -10833.653904 -21379.450114     78.893935                    
V  6  11632.137624 -24523.448366   6188.568189      0.069976                    
P  7   4048.247319 -24128.796961   9960.653956    482.609359                    
V  7   7779.782053 -10215.754862 -28645.606728     -0.008650                    
P  8  13387.118494  -7426.318378  21748.475915     -9.151597                    
V  8  15977.242829  22394.339028  -2204.032204     -0.013568                    
P  9  -4981.556353 -22571.324135 -13080.416434     -1.216127                    
V  9  11668.636442  12056.624825 -25274.393007      0.039709                    
P 11  11032.942987 -20663.477229  11892.525991   -610.883259                    
V 11   3048.950592  16415.325952  24643.984503     -0.023010                    
P 12 -19161.339388  10723.445216 -14891.714122    337.842771                    
V 12 -18805.005732   -572.600584  24156.357626      0.032632                    
P 13 -17286.571317  -3416.714031  19708.234577   -157.605405                    
V 13 -11373.316254 -22640.962772 -13909.665903     -0.028577                    
P 14  14624.951097  22208.386281  -1400.096419     27.418930                    
V 14  -1098.359455   3094.788614  31698.757444     -0.023806                    
P 15 -12828.842331   9212.383065  21259.177115   -277.459015                    
V 15 -17112.779384 -21318.805786   -748.617239     -0.020054                    
P 16  26715.876498    277.392513  -1671.236020    -75.330795                    
V 16  -1946.599945   1597.719836 -32068.637678      0.037805                    
P 17 -15380.816005 -21718.795812  -1519.787529   -191.347517                    
V 17    621.884129  -3134.203748  31828.927859     -0.011424                    
P 18   3495.257239  15892.762225  21511.816422    444.134800                    
V 18 -26067.684273   3301.162691   1557.152494      0.037053                    
P 19   2238.769390 -19651.682918  17311.333349   -521.670036                    
V 19  12929.827149  18549.571083  19560.760159     -0.004773                    
P 20 -19102.233275  13176.856187  12831.148204    364.047224                    
V 20 -16885.299970   -147.935431 -24607.438334      0.029674                    
P 21    475.009854  23361.017138  13034.694789   -487.515321                    
V 21  -8857.099989  13190.412557 -25004.775188     -0.025856                    
P 22  17453.215610  10903.058489  17120.472844    401.991109                    
V 22 -20917.863243   4806.336082  18342.958481      0.034848                    
P 23   7057.655703 -15235.428723 -20314.008477   -139.493645                    
V 23  16337.567283  20680.729645 -10182.907356     -0.021132                    
P 24 -14751.068824  20630.617810   7565.488699     -6.510765                    
V 24   1032.700540 -10123.984999  29650.664210     -0.006766                    
P 25  -6009.522511  14917.160260 -21203.989163    -54.188963                    
V 25 -26617.995107   1910.323564   9091.019804     -0.054790                    
P 26  23283.372833   5659.593344 -11469.562572    -88.442624                    
V 26 -14240.257414   3871.938381 -26984.179210     -0.134854                    
P 27  18884.590808   4982.344558  18030.982328     28.492422                    
V 27  12278.148041  19356.499701 -18060.542755      0.030974                    
P 28 -13293.671333 -12694.727734  19831.436459    475.241181                    
V 28  23710.065737  -1312.401327  15475.055910      0.026786                    
P 29   1793.255215  21808.121117 -15066.879527    640.138739                    
V 29 -11719.206081 -15192.170514 -23328.358556      0.019492                    
P 30  -4182.648324 -19039.560425  18003.836122     42.991731                    
V 30  12448.048345 -19311.130818 -17610.189111      0.061111                    
P 31  11635.408831   9707.902414 -21650.698288    298.758320                    
V 31 -12743.598588  24714.692618   4541.815377     -0.014788                    
P 32  24644.167820  -5645.057191  -7224.103892    -10.706384                    
V 32   9318.876264   3331.040270  29948.369882      0.115536                    
EOF
